[{"OBJECT_NAME":"YAM-7","OBJECT_ID":"2024-149AN","EPOCH":"2026-03-09T17:13:55.117920","MEAN_MOTION":15.30304554,"ECCENTRICITY":0.00019733,"INCLINATION":97.3828,"RA_OF_ASC_NODE":149.4631,"ARG_OF_PERICENTER":296.5121,"MEAN_ANOMALY":63.5918,"EPHEMERIS_TYPE":0,"CLASSIFICATION_TYPE":"U","NORAD_CAT_ID":60504,"ELEMENT_SET_NO":999,"REV_AT_EPOCH":8683,"BSTAR":0.00030984439,"MEAN_MOTION_DOT":9.009e-5,"MEAN_MOTION_DDOT":0},{"OBJECT_NAME":"STARLINK-35803","OBJECT_ID":"2025-268M","EPOCH":"2026-03-09T02:23:23.875296","MEAN_MOTION":15.27571654,"ECCENTRICITY":0.00018787,"INCLINATION":43.0033,"RA_OF_ASC_NODE":350.0373,"ARG_OF_PERICENTER":251.0604,"MEAN_ANOMALY":109.0044,"EPHEMERIS_TYPE":0,"CLASSIFICATION_TYPE":"U","NORAD_CAT_ID":66568,"ELEMENT_SET_NO":999,"REV_AT_EPOCH":1787,"BSTAR":0.0015410089,"MEAN_MOTION_DOT":0.00042377,"MEAN_MOTION_DDOT":0}]
